[{"OBJECT_NAME":"LEMUR-2-LIA-MARTIN","OBJECT_ID":"2025-052AQ","EPOCH":"2026-03-09T16:52:54.660288","MEAN_MOTION":14.96805944,"ECCENTRICITY":0.00038171,"INCLINATION":97.6996,"RA_OF_ASC_NODE":322.6614,"ARG_OF_PERICENTER":139.7155,"MEAN_ANOMALY":220.435,"EPHEMERIS_TYPE":0,"CLASSIFICATION_TYPE":"U","NORAD_CAT_ID":63248,"ELEMENT_SET_NO":999,"REV_AT_EPOCH":5379,"BSTAR":0.0006082839,"MEAN_MOTION_DOT":6.911e-5,"MEAN_MOTION_DDOT":0},{"OBJECT_NAME":"STARLINK-34558","OBJECT_ID":"2025-142AB","EPOCH":"2026-03-09T23:27:12.494880","MEAN_MOTION":14.98317882,"ECCENTRICITY":0.00022839,"INCLINATION":70.001,"RA_OF_ASC_NODE":313.7355,"ARG_OF_PERICENTER":257.8018,"MEAN_ANOMALY":102.2886,"EPHEMERIS_TYPE":0,"CLASSIFICATION_TYPE":"U","NORAD_CAT_ID":64721,"ELEMENT_SET_NO":999,"REV_AT_EPOCH":3950,"BSTAR":0.0004854361,"MEAN_MOTION_DOT":5.702e-5,"MEAN_MOTION_DDOT":0}]
